TYVAK-0130              
1 48606U 21041BF  26068.48452211  .00008857  00000+0  35198-3 0  9997
2 48606  52.9967 128.6030 0008953 215.1647 144.8760 15.26049141265157
STARLINK-30865          
1 58226U 23170W   26068.00004630  .00006399  00000+0  24826-3 0  9992
2 58226  42.9990 186.7067 0001357 243.4599 281.8761 15.26709308  5745
